ESEO                    
1 43792U 18099AL  26068.65529582  .00002831  00000+0  20935-3 0  9991
2 43792  97.4113 110.2601 0011063 317.6000  42.4371 15.03914518396849
STARLINK-30557          
1 58087U 23160N   26068.05549736 -.00000255  00000+0 -37766-5 0  9998
2 58087  43.0007  83.6006 0000969 276.5853  83.4879 15.02538542132827
